MEAN_MOTION;ECCENTRICITY;INCLINATION;RA_OF_ASC_NODE;ARG_OF_PERICENTER;MEAN_ANOMALY;BSTAR;MEAN_MOTION_DOT;MEAN_MOTION_DDOT;TYPE
0.99177469;0.0014125;5.1997;65.8196;205.3841;11.6019;0;-1.2E-7;0;Intelsat
0.99177445;0.0014115;5.2003;65.8176;205.4027;125.6536;0;-7.0E-8;0;Intelsat
0.99177441;0.0014099;5.2018;65.8135;205.3902;29.4913;0;4.0E-8;0;Intelsat
0.99177416;0.0014084;5.2036;65.8082;205.3929;359.2457;0;1.6E-7;0;Intelsat
0.9917745;0.0014073;5.2046;65.8054;205.4107;173.9674;0;2.2E-7;0;Intelsat
0.99177476;0.0014069;5.2057;65.8021;205.4162;20.7225;0;2.9E-7;0;Intelsat
0.99177569;0.0014055;5.2075;65.797;205.4356;349.1614;0;3.9E-7;0;Intelsat
0.99177697;0.0014043;5.2093;65.792;205.4599;305.0157;0;4.6E-7;0;Intelsat
0.99177709;0.0014042;5.2094;65.7917;205.4657;329.7757;0;4.7E-7;0;Intelsat
0.99177911;0.0014023;5.2116;65.7856;205.5199;14.4759;0;5.5E-7;0;Intelsat
0.99178157;0.0014003;5.2136;65.7803;205.5673;6.1111;0;5.8E-7;0;Intelsat
0.99178426;0.0013976;5.2156;65.775;205.6258;11.5121;0;5.9E-7;0;Intelsat
0.99178743;0.001395;5.2175;65.7699;205.6817;356.1693;0;5.7E-7;0;Intelsat
0.99179079;0.0013924;5.2195;65.7649;205.741;342.9377;0;5.2E-7;0;Intelsat
0.9917943;0.0013894;5.2213;65.7601;205.7961;315.8278;0;4.5E-7;0;Intelsat
0.99179476;0.0013888;5.2216;65.7595;205.8114;7.0509;0;4.3E-7;0;Intelsat
0.99179863;0.0013857;5.2235;65.7546;205.8673;339.9257;0;3.3E-7;0;Intelsat
0.99179873;0.0013843;5.2236;65.7545;205.874;5.522;0;3.2E-7;0;Intelsat
0.99180283;0.0013803;5.2256;65.7496;205.9216;346.8674;0;1.9E-7;0;Intelsat
0.99180297;0.0013796;5.2257;65.7494;205.9223;4.0584;0;1.8E-7;0;Intelsat
0.99180745;0.0013752;5.2277;65.7443;205.9684;2.5851;0;2.0E-8;0;Intelsat
0.99181181;0.0013702;5.2297;65.7393;206.0066;1.1022;0;-1.7E-7;0;Intelsat
0.991816;0.0013655;5.2316;65.7345;206.037;332.7081;0;-3.6E-7;0;Intelsat
0.99182053;0.00136;5.2338;65.7293;206.0525;358.2277;0;-6.0E-7;0;Intelsat
0.99182454;0.0013551;5.2359;65.7244;206.0671;356.7975;0;-8.3E-7;0;Intelsat
0.99182837;0.0013498;5.2379;65.7195;206.0684;355.3698;0;-1.08E-6;0;Intelsat
0.99183134;0.0013446;5.2398;65.7153;206.0689;316.2312;0;-1.31E-6;0;Intelsat
0.99183171;0.0013441;5.24;65.7147;206.0517;355.9254;0;-1.33E-6;0;Intelsat
0.99183424;0.0013393;5.2418;65.7105;206.0462;311.2739;0;-1.56E-6;0;Intelsat
0.99183485;0.0013385;5.2423;65.7094;206.0203;38.924;0;-1.62E-6;0;Intelsat
0.99183715;0.0013336;5.2442;65.7048;205.9862;11.7048;0;-1.86E-6;0;Intelsat
0.99183891;0.0013286;5.2461;65.7002;205.941;349.8657;0;-2.1E-6;0;Intelsat
0.99183995;0.0013244;5.2478;65.696;205.903;300.8777;0;-2.3E-6;0;Intelsat
0.99184017;0.0013234;5.2482;65.695;205.8712;14.127;0;-2.35E-6;0;Intelsat
0.99184058;0.0013191;5.2502;65.6899;205.8056;12.779;0;-2.58E-6;0;Intelsat
0.99184047;0.0013157;5.252;65.685;205.7411;345.8221;0;-2.76E-6;0;Intelsat
0.9918404;0.0013155;5.2522;65.6846;205.7379;11.4535;0;-2.77E-6;0;Intelsat
0.99183938;0.0013123;5.2542;65.6794;205.6636;10.1153;0;-2.94E-6;0;Intelsat
0.99183767;0.0013098;5.2561;65.674;205.5993;8.778;0;-3.07E-6;0;Intelsat
0.99183532;0.0013069;5.2581;65.6689;205.53;6.1341;0;-3.15E-6;0;Intelsat
0.99183232;0.0013044;5.2601;65.6637;205.4717;6.0764;0;-3.18E-6;0;Intelsat
0.99182867;0.0013024;5.2621;65.6587;205.4288;4.694;0;-3.17E-6;0;Intelsat
0.99182472;0.0013002;5.264;65.6539;205.3928;348.1547;0;-3.12E-6;0;Intelsat
0.99182022;0.0012982;5.2659;65.6492;205.3627;336.3164;0;-3.01E-6;0;Intelsat
0.99181492;0.0012956;5.2681;65.6441;205.3407;0.5288;0;-2.85E-6;0;Intelsat
0.9918123;0.0012942;5.2691;65.6418;205.2837;179.8738;0;-2.76E-6;0;Intelsat
0.99180972;0.0012927;5.2701;65.6394;205.3189;359.1305;0;-2.67E-6;0;Intelsat
0.99180415;0.0012894;5.2721;65.6347;205.3015;7.8707;0;-2.44E-6;0;Intelsat
0.99180088;0.001288;5.2733;65.6321;205.2447;226.0758;0;-2.29E-6;0;Intelsat
0.99179891;0.0012861;5.274;65.6303;205.2809;356.3337;0;-2.2E-6;0;Intelsat
0.99179618;0.001285;5.275;65.628;205.2366;175.6625;0;-2.07E-6;0;Intelsat
0.99179371;0.0012828;5.276;65.6258;205.2744;354.9169;0;-1.93E-6;0;Intelsat
0.99179027;0.0012812;5.2774;65.6227;205.2468;244.5358;0;-1.73E-6;0;Intelsat
0.99178862;0.0012796;5.278;65.6212;205.2714;353.4782;0;-1.64E-6;0;Intelsat
0.99178611;0.0012781;5.2791;65.6189;205.2344;175.3514;0;-1.49E-6;0;Intelsat
0.99178384;0.0012757;5.2801;65.6166;205.25;352.0615;0;-1.34E-6;0;Intelsat
0.99177935;0.0012712;5.2821;65.612;205.2111;350.6914;0;-1.03E-6;0;Intelsat
0.99177553;0.0012665;5.2841;65.6074;205.1648;349.2909;0;-7.3E-7;0;Intelsat
0.99177228;0.0012607;5.2861;65.6027;205.0904;347.9262;0;-4.2E-7;0;Intelsat
0.99176969;0.0012558;5.2882;65.5982;205.0273;346.5544;0;-1.4E-7;0;Intelsat
0.9917679;0.0012508;5.2902;65.5937;204.9556;345.1543;0;1.3E-7;0;Intelsat
0.99176786;0.0012505;5.2903;65.5935;204.9452;10.7681;0;1.5E-7;0;Intelsat
0.99176697;0.0012458;5.2923;65.5893;204.8675;353.0802;0;3.7E-7;0;Intelsat
0.99176668;0.0012431;5.2934;65.5869;204.8364;188.723;0;4.9E-7;0;Intelsat
0.99176684;0.0012409;5.2942;65.5851;204.7647;342.448;0;5.7E-7;0;Intelsat
0.9917668;0.0012404;5.2946;65.5845;204.7441;39.3778;0;6.0E-7;0;Intelsat
0.99176683;0.001238;5.2954;65.5826;204.7166;187.3817;0;6.7E-7;0;Intelsat
0.99176713;0.0012359;5.2962;65.5809;204.642;335.1798;0;7.3E-7;0;Intelsat
0.99176759;0.0012333;5.2974;65.5783;204.5974;186.0703;0;8.1E-7;0;Intelsat
0.99176826;0.0012313;5.2982;65.5766;204.5129;337.03;0;8.6E-7;0;Intelsat
0.99176864;0.0012308;5.2987;65.5756;204.4843;64.6464;0;8.8E-7;0;Intelsat
0.99177034;0.0012267;5.3002;65.5723;204.3664;338.5425;0;9.3E-7;0;Intelsat
0.99177282;0.0012224;5.3022;65.568;204.1878;339.4838;0;9.6E-7;0;Intelsat
0.99177466;0.0012206;5.3033;65.5654;204.14;182.1987;0;9.5E-7;0;Intelsat
0.99177589;0.0012189;5.304;65.5638;204.036;310.3822;0;9.4E-7;0;Intelsat
0.99178201;0.0012145;5.3072;65.556;203.8062;179.6796;0;8.1E-7;0;Intelsat
0.99178822;0.0012109;5.31;65.5491;203.5098;330.6623;0;6.2E-7;0;Intelsat
0.9917908;0.0012099;5.3111;65.5463;203.4701;177.1498;0;5.3E-7;0;Intelsat
0.99179256;0.0012096;5.3118;65.5446;203.3828;305.281;0;4.7E-7;0;Intelsat
0.99179338;0.0012095;5.3121;65.5439;203.3483;356.5549;0;4.4E-7;0;Intelsat
0.99179771;0.0012083;5.3139;65.5394;203.2235;329.6323;0;2.7E-7;0;Intelsat
0.99180183;0.0012073;5.3157;65.5353;203.1171;287.6624;0;8.0E-8;0;Intelsat
0.99180199;0.0012073;5.3157;65.5351;203.1123;302.7093;0;8.0E-8;0;Intelsat
0.99180692;0.0012063;5.3177;65.5305;202.9872;306.7832;0;-1.4E-7;0;Intelsat
0.99181145;0.0012056;5.3197;65.5261;202.8865;303.9451;0;-3.7E-7;0;Intelsat
0.99181224;0.0012055;5.32;65.5253;202.8647;6.455;0;-4.1E-7;0;Intelsat
0.9918157;0.0012046;5.3216;65.5219;202.7837;298.7642;0;-6.0E-7;0;Intelsat
0.99181854;0.0012035;5.323;65.5187;202.688;194.9885;0;-7.7E-7;0;Intelsat
0.9918204;0.0012028;5.3241;65.5164;202.6627;29.5474;0;-8.9E-7;0;Intelsat
0.99182256;0.0012022;5.3253;65.5137;202.598;265.7259;0;-1.05E-6;0;Intelsat
0.99182525;0.0012005;5.3269;65.5101;202.4806;192.3564;0;-1.23E-6;0;Intelsat
0.99182672;0.0011991;5.3279;65.508;202.4501;11.6814;0;-1.34E-6;0;Intelsat
0.99182804;0.0011984;5.3289;65.5058;202.3741;191.0426;0;-1.45E-6;0;Intelsat
0.99182861;0.0011977;5.3293;65.5048;202.3662;282.5188;0;-1.51E-6;0;Intelsat
0.99182996;0.0011962;5.3308;65.5015;202.2966;189.6822;0;-1.66E-6;0;Intelsat
0.99183089;0.0011944;5.3318;65.4993;202.2591;9.0132;0;-1.76E-6;0;Intelsat
0.99183166;0.0011938;5.3327;65.4972;202.2195;188.3507;0;-1.85E-6;0;Intelsat
0.99183234;0.0011917;5.3337;65.4949;202.168;10.6716;0;-1.94E-6;0;Intelsat
0.99183313;0.0011881;5.3363;65.4894;202.0202;122.4484;0;-2.13E-6;0;Intelsat
0.99183313;0.0011857;5.3377;65.4862;201.9432;17.185;0;-2.22E-6;0;Intelsat
0.99183295;0.0011848;5.3387;65.4842;201.9101;184.4268;0;-2.27E-6;0;Intelsat
0.99183253;0.0011819;5.3401;65.4813;201.7602;81.6458;0;-2.34E-6;0;Intelsat
0.99183078;0.001177;5.3431;65.4749;201.6039;265.6431;0;-2.43E-6;0;Intelsat
0.99182994;0.0011756;5.3442;65.4726;201.4898;106.7927;0;-2.45E-6;0;Intelsat
0.99182839;0.0011729;5.3455;65.4695;201.386;359.9822;0;-2.46E-6;0;Intelsat
0.9918261;0.0011697;5.3475;65.4652;201.2225;359.9608;0;-2.46E-6;0;Intelsat
0.99182338;0.0011668;5.3494;65.4611;201.0408;354.2988;0;-2.43E-6;0;Intelsat
0.99181902;0.0011636;5.352;65.4553;200.7558;124.3889;0;-2.37E-6;0;Intelsat
0.99181585;0.0011613;5.3539;65.4509;200.5514;123.1931;0;-2.3E-6;0;Intelsat
0.99181238;0.0011596;5.3558;65.4464;200.3527;121.9612;0;-2.22E-6;0;Intelsat
0.99180866;0.0011578;5.3577;65.4417;200.0977;120.7894;0;-2.12E-6;0;Intelsat
0.99180529;0.0011568;5.3594;65.4375;199.9068;79.7796;0;-2.02E-6;0;Intelsat
0.99179967;0.0011565;5.3623;65.4303;199.5531;262.3088;0;-1.83E-6;0;Intelsat
0.99179848;0.0011566;5.3629;65.4288;199.4803;14.6385;0;-1.79E-6;0;Intelsat
0.99179427;0.001157;5.3652;65.4231;199.2486;89.9918;0;-1.6E-6;0;Intelsat
0.99179111;0.0011577;5.3669;65.4188;199.0802;59.028;0;-1.44E-6;0;Intelsat
0.99178839;0.0011588;5.3685;65.4149;198.9451;0.3277;0;-1.28E-6;0;Intelsat
0.99178529;0.0011601;5.3703;65.4108;198.7702;340.5949;0;-1.09E-6;0;Intelsat
0.99178273;0.0011609;5.3723;65.4061;198.6165;7.3865;0;-8.7E-7;0;Intelsat
0.99178183;0.0011607;5.373;65.4045;198.5103;136.5176;0;-8.0E-7;0;Intelsat
0.99177975;0.0011617;5.3749;65.4002;198.3722;135.235;0;-5.9E-7;0;Intelsat
0.99177861;0.0011624;5.3761;65.3974;198.3276;7.8526;0;-4.6E-7;0;Intelsat
0.99177627;0.001163;5.3789;65.3911;198.1097;165.5922;0;-1.8E-7;0;Intelsat
0.99177571;0.0011628;5.3801;65.3883;198.0804;34.4544;0;-6.0E-8;0;Intelsat
0.9917755;0.001163;5.3806;65.3872;198.01;131.2702;0;-1.0E-8;0;Intelsat
0.99177525;0.0011632;5.3827;65.3823;197.8825;161.9031;0;1.8E-7;0;Intelsat
0.99177513;0.001163;5.3837;65.3799;197.8546;352.1079;0;2.6E-7;0;Intelsat
0.99177534;0.0011629;5.3854;65.3759;197.7565;306.4216;0;3.9E-7;0;Intelsat
0.99177585;0.0011622;5.3864;65.3737;197.6583;127.3094;0;4.6E-7;0;Intelsat
0.99177686;0.0011615;5.3884;65.3688;197.472;151.6549;0;5.8E-7;0;Intelsat
0.99177795;0.0011609;5.3896;65.3659;197.3917;16.86;0;6.4E-7;0;Intelsat
0.99177862;0.0011606;5.3903;65.3642;197.3277;150.3733;0;6.8E-7;0;Intelsat
0.99178083;0.0011596;5.3923;65.3596;197.1899;151.8127;0;7.5E-7;0;Intelsat
